[{"OBJECT_NAME":"STARLINK-32682","OBJECT_ID":"2024-229E","EPOCH":"2026-03-09T11:44:02.343264","MEAN_MOTION":15.27589471,"ECCENTRICITY":0.00012062,"INCLINATION":42.9945,"RA_OF_ASC_NODE":239.1712,"ARG_OF_PERICENTER":206.4951,"MEAN_ANOMALY":153.584,"EPHEMERIS_TYPE":0,"CLASSIFICATION_TYPE":"U","NORAD_CAT_ID":62196,"ELEMENT_SET_NO":999,"REV_AT_EPOCH":7090,"BSTAR":0.0011135019,"MEAN_MOTION_DOT":0.00030515,"MEAN_MOTION_DDOT":0},{"OBJECT_NAME":"COSMOS 1758","OBJECT_ID":"1986-046A","EPOCH":"2026-03-09T22:23:33.220896","MEAN_MOTION":15.25706639,"ECCENTRICITY":0.00131526,"INCLINATION":82.4607,"RA_OF_ASC_NODE":143.3203,"ARG_OF_PERICENTER":337.3781,"MEAN_ANOMALY":22.6875,"EPHEMERIS_TYPE":0,"CLASSIFICATION_TYPE":"U","NORAD_CAT_ID":16791,"ELEMENT_SET_NO":999,"REV_AT_EPOCH":16610,"BSTAR":0.00027304427,"MEAN_MOTION_DOT":7.006e-5,"MEAN_MOTION_DDOT":0}]
